{
  "type": "FeatureCollection",
  "features": [
    {
      "type": "Feature",
      "properties": {
        "norad_id": 66650,
        "name": "2025-274A",
        "group": "last-30-days",
        "lat": NaN,
        "lon": NaN,
        "alt_km": NaN,
        "timestamp": "2025-12-01T02:46:51.397423+00:00",
        "meta": {
          "OBJECT_NAME": "2025-274A",
          "OBJECT_ID": "2025-274A",
          "EPOCH": "2025-11-30T17:52:22.689120",
          "MEAN_MOTION": 14.91592193,
          "ECCENTRICITY": 0.0010575,
          "INCLINATION": 97.7374,
          "RA_OF_ASC_NODE": 262.1545,
          "ARG_OF_PERICENTER": 297.2309,
          "MEAN_ANOMALY": 62.7832,
          "EPHEMERIS_TYPE": 0,
          "CLASSIFICATION_TYPE": "U",
          "NORAD_CAT_ID": 66650,
          "ELEMENT_SET_NO": 999,
          "REV_AT_EPOCH": 61,
          "BSTAR": 0.00021907,
          "MEAN_MOTION_DOT": 2.144e-05,
          "MEAN_MOTION_DDOT": 0
        }
      },
      "geometry": {
        "type": "Point",
        "coordinates": [
          NaN,
          NaN
        ]
      }
    },
    {
      "type": "Feature",
      "properties": {
        "norad_id": 66651,
        "name": "2025-274B",
        "group": "last-30-days",
        "lat": NaN,
        "lon": NaN,
        "alt_km": NaN,
        "timestamp": "2025-12-01T02:46:51.397442+00:00",
        "meta": {
          "OBJECT_NAME": "2025-274B",
          "OBJECT_ID": "2025-274B",
          "EPOCH": "2025-11-30T17:52:09.940800",
          "MEAN_MOTION": 14.91650992,
          "ECCENTRICITY": 0.0010907,
          "INCLINATION": 97.7367,
          "RA_OF_ASC_NODE": 262.1543,
          "ARG_OF_PERICENTER": 296.7934,
          "MEAN_ANOMALY": 63.2168,
          "EPHEMERIS_TYPE": 0,
          "CLASSIFICATION_TYPE": "U",
          "NORAD_CAT_ID": 66651,
          "ELEMENT_SET_NO": 999,
          "REV_AT_EPOCH": 61,
          "BSTAR": 0.00036961,
          "MEAN_MOTION_DOT": 3.662e-05,
          "MEAN_MOTION_DDOT": 0
        }
      },
      "geometry": {
        "type": "Point",
        "coordinates": [
          NaN,
          NaN
        ]
      }
    },
    {
      "type": "Feature",
      "properties": {
        "norad_id": 66652,
        "name": "2025-274C",
        "group": "last-30-days",
        "lat": NaN,
        "lon": NaN,
        "alt_km": NaN,
        "timestamp": "2025-12-01T02:46:51.397459+00:00",
        "meta": {
          "OBJECT_NAME": "2025-274C",
          "OBJECT_ID": "2025-274C",
          "EPOCH": "2025-11-30T17:51:34.405344",
          "MEAN_MOTION": 14.91802271,
          "ECCENTRICITY": 0.0010671,
          "INCLINATION": 97.7373,
          "RA_OF_ASC_NODE": 262.155,
          "ARG_OF_PERICENTER": 303.5435,
          "MEAN_ANOMALY": 56.4764,
          "EPHEMERIS_TYPE": 0,
          "CLASSIFICATION_TYPE": "U",
          "NORAD_CAT_ID": 66652,
          "ELEMENT_SET_NO": 999,
          "REV_AT_EPOCH": 61,
          "BSTAR": 0.00029489,
          "MEAN_MOTION_DOT": 2.921e-05,
          "MEAN_MOTION_DDOT": 0
        }
      },
      "geometry": {
        "type": "Point",
        "coordinates": [
          NaN,
          NaN
        ]
      }
    },
    {
      "type": "Feature",
      "properties": {
        "norad_id": 66653,
        "name": "2025-274D",
        "group": "last-30-days",
        "lat": NaN,
        "lon": NaN,
        "alt_km": NaN,
        "timestamp": "2025-12-01T02:46:51.397475+00:00",
        "meta": {
          "OBJECT_NAME": "2025-274D",
          "OBJECT_ID": "2025-274D",
          "EPOCH": "2025-11-30T17:51:31.867776",
          "MEAN_MOTION": 14.91809434,
          "ECCENTRICITY": 0.0011512,
          "INCLINATION": 97.7375,
          "RA_OF_ASC_NODE": 262.1547,
          "ARG_OF_PERICENTER": 299.1833,
          "MEAN_ANOMALY": 60.8233,
          "EPHEMERIS_TYPE": 0,
          "CLASSIFICATION_TYPE": "U",
          "NORAD_CAT_ID": 66653,
          "ELEMENT_SET_NO": 999,
          "REV_AT_EPOCH": 61,
          "BSTAR": 0.00013889,
          "MEAN_MOTION_DOT": 1.346e-05,
          "MEAN_MOTION_DDOT": 0
        }
      },
      "geometry": {
        "type": "Point",
        "coordinates": [
          NaN,
          NaN
        ]
      }
    },
    {
      "type": "Feature",
      "properties": {
        "norad_id": 66654,
        "name": "2025-274E",
        "group": "last-30-days",
        "lat": NaN,
        "lon": NaN,
        "alt_km": NaN,
        "timestamp": "2025-12-01T02:46:51.397495+00:00",
        "meta": {
          "OBJECT_NAME": "2025-274E",
          "OBJECT_ID": "2025-274E",
          "EPOCH": "2025-11-30T17:50:54.383136",
          "MEAN_MOTION": 14.91972053,
          "ECCENTRICITY": 0.001203,
          "INCLINATION": 97.7372,
          "RA_OF_ASC_NODE": 262.1557,
          "ARG_OF_PERICENTER": 300.6789,
          "MEAN_ANOMALY": 59.3244,
          "EPHEMERIS_TYPE": 0,
          "CLASSIFICATION_TYPE": "U",
          "NORAD_CAT_ID": 66654,
          "ELEMENT_SET_NO": 999,
          "REV_AT_EPOCH": 61,
          "BSTAR": 0.00034486,
          "MEAN_MOTION_DOT": 3.442e-05,
          "MEAN_MOTION_DDOT": 0
        }
      },
      "geometry": {
        "type": "Point",
        "coordinates": [
          NaN,
          NaN
        ]
      }
    },
    {
      "type": "Feature",
      "properties": {
        "norad_id": 66655,
        "name": "2025-274F",
        "group": "last-30-days",
        "lat": NaN,
        "lon": NaN,
        "alt_km": NaN,
        "timestamp": "2025-12-01T02:46:51.397516+00:00",
        "meta": {
          "OBJECT_NAME": "2025-274F",
          "OBJECT_ID": "2025-274F",
          "EPOCH": "2025-11-30T17:50:34.315872",
          "MEAN_MOTION": 14.92139286,
          "ECCENTRICITY": 0.0008167,
          "INCLINATION": 97.7344,
          "RA_OF_ASC_NODE": 262.1565,
          "ARG_OF_PERICENTER": 326.2487,
          "MEAN_ANOMALY": 33.8211,
          "EPHEMERIS_TYPE": 0,
          "CLASSIFICATION_TYPE": "U",
          "NORAD_CAT_ID": 66655,
          "ELEMENT_SET_NO": 999,
          "REV_AT_EPOCH": 61,
          "BSTAR": 0.00033158,
          "MEAN_MOTION_DOT": 3.319e-05,
          "MEAN_MOTION_DDOT": 0
        }
      },
      "geometry": {
        "type": "Point",
        "coordinates": [
          NaN,
          NaN
        ]
      }
    },
    {
      "type": "Feature",
      "properties": {
        "norad_id": 66656,
        "name": "2025-274G",
        "group": "last-30-days",
        "lat": NaN,
        "lon": NaN,
        "alt_km": NaN,
        "timestamp": "2025-12-01T02:46:51.397533+00:00",
        "meta": {
          "OBJECT_NAME": "2025-274G",
          "OBJECT_ID": "2025-274G",
          "EPOCH": "2025-11-30T17:50:12.485184",
          "MEAN_MOTION": 14.92151178,
          "ECCENTRICITY": 0.0012719,
          "INCLINATION": 97.737,
          "RA_OF_ASC_NODE": 262.1561,
          "ARG_OF_PERICENTER": 302.114,
          "MEAN_ANOMALY": 57.8844,
          "EPHEMERIS_TYPE": 0,
          "CLASSIFICATION_TYPE": "U",
          "NORAD_CAT_ID": 66656,
          "ELEMENT_SET_NO": 999,
          "REV_AT_EPOCH": 61,
          "BSTAR": 0.00036405,
          "MEAN_MOTION_DOT": 3.654e-05,
          "MEAN_MOTION_DDOT": 0
        }
      },
      "geometry": {
        "type": "Point",
        "coordinates": [
          NaN,
          NaN
        ]
      }
    },
    {
      "type": "Feature",
      "properties": {
        "norad_id": 66657,
        "name": "2025-274H",
        "group": "last-30-days",
        "lat": NaN,
        "lon": NaN,
        "alt_km": NaN,
        "timestamp": "2025-12-01T02:46:51.397550+00:00",
        "meta": {
          "OBJECT_NAME": "2025-274H",
          "OBJECT_ID": "2025-274H",
          "EPOCH": "2025-11-30T17:49:31.492704",
          "MEAN_MOTION": 14.92331737,
          "ECCENTRICITY": 0.0011397,
          "INCLINATION": 97.7368,
          "RA_OF_ASC_NODE": 262.1568,
          "ARG_OF_PERICENTER": 320.9392,
          "MEAN_ANOMALY": 39.1003,
          "EPHEMERIS_TYPE": 0,
          "CLASSIFICATION_TYPE": "U",
          "NORAD_CAT_ID": 66657,
          "ELEMENT_SET_NO": 999,
          "REV_AT_EPOCH": 61,
          "BSTAR": 0.00036623,
          "MEAN_MOTION_DOT": 3.692e-05,
          "MEAN_MOTION_DDOT": 0
        }
      },
      "geometry": {
        "type": "Point",
        "coordinates": [
          NaN,
          NaN
        ]
      }
    }
  ]
}