2025-274A               
1 66650U 25274A   25334.74470705  .00002144  00000+0  21907-3 0  9996
2 66650  97.7374 262.1545 0010575 297.2309  62.7832 14.91592193   616
2025-274B               
1 66651U 25274B   25334.74455951  .00003662  00000+0  36961-3 0  9995
2 66651  97.7367 262.1543 0010907 296.7934  63.2168 14.91650992   614
2025-274C               
1 66652U 25274C   25334.74414821  .00002921  00000+0  29489-3 0  9991
2 66652  97.7373 262.1550 0010671 303.5435  56.4764 14.91802271   616
2025-274D               
1 66653U 25274D   25334.74411885  .00001346  00000+0  13889-3 0  9996
2 66653  97.7375 262.1547 0011512 299.1833  60.8233 14.91809434   610
2025-274E               
1 66654U 25274E   25334.74368499  .00003442  00000+0  34486-3 0  9994
2 66654  97.7372 262.1557 0012029 300.6789  59.3244 14.91972053   614
2025-274F               
1 66655U 25274F   25334.74345274  .00003319  00000+0  33158-3 0  9999
2 66655  97.7344 262.1565 0008167 326.2487  33.8211 14.92139286   615
2025-274G               
1 66656U 25274G   25334.74320006  .00003654  00000+0  36405-3 0  9996
2 66656  97.7370 262.1561 0012719 302.1140  57.8844 14.92151178   610
2025-274H               
1 66657U 25274H   25334.74272562  .00003692  00000+0  36623-3 0  9994
2 66657  97.7368 262.1568 0011397 320.9392  39.1003 14.92331737   614
